GAOFEN 12-3             
1 52912U 22069A   22208.22993980  .00000660  00000+0  93606-4 0  9993
2 52912  97.9825  95.7491 0001653  95.1233 265.0157 14.80257286  4388
CZ-4C R/B               
1 52913U 22069B   22208.10949521  .00001551  00000+0  10137-3 0  9990
2 52913  97.9690  96.8104 0071983 306.3185  53.1409 15.07388477  4437
CAPSTONE                
1 52914U 22070A   22184.14236111 -.00000375  00000+0  00000+0 0  9992
2 52914  39.0806 321.8334 8405410 344.4990 285.0037  1.02266752   396
LUNAR PHOTON            
1 52916U 22070C   22184.14236111 -.00000375  00000+0  00000+0 0  9994
2 52916  39.0806 321.8334 8405410 344.4990 285.0037  1.02266752   398
NACHOS-1                
1 52917U 22015D   22208.06859386  .00026031  00000+0  37393-3 0  9992
2 52917  51.6429 138.0013 0007519  61.6270 298.5479 15.55891743  4403
SES-22                  
1 52933U 22071A   22207.65369802  .00000087  00000+0  00000+0 0  9999
2 52933   0.0563 256.7892 0000235  68.8656  75.2807  1.00473668   291
FALCON 9 R/B            
1 52934U 22071B   22207.69042431  .00000632  00000+0  57888-3 0  9996
2 52934  16.6507  56.3819 7249247 198.5750 106.4558  2.28797114   608
DS-EO                   
1 52935U 22072A   22208.04027858 -.00001720  00000+0 -19219-3 0  9991
2 52935   9.9974 242.5348 0007198 337.4420  22.5463 14.99644583  3963
2022-072B               
1 52936U 22072B   22208.10046698  .00006965  00000+0  48511-3 0  9993
2 52936   9.9869 241.9652 0008056 339.8844  20.0742 15.00198255  3986
NEUSAR                  
1 52937U 22072C   22208.47094907 -.00008005  00000+0 -67815-3 0  9997
2 52937   9.9872 239.1268 0008953 341.0442 250.0715 15.00255143  4052
2022-072D               
1 52938U 22072D   22206.99857639  .00015567  00000+0  93998-3 0  9992
2 52938   9.9055 248.3457 0027012 199.6101 201.4349 15.07309035  3851
2022-072E               
1 52939U 22072E   22208.10685706  .00002592  00000+0  12745-3 0  9997
2 52939   9.9490 240.7908 0037313 334.2676  25.5571 15.03461874  4018
WFOV (USA 332)          
1 52940U 22073A   22207.74519235 -.00000177  00000+0  00000+0 0  9997
2 52940   0.0577 130.3760 0012236 151.1510 251.8218  0.98503280   124
RECURVE                 
1 52944U 22074A   22207.78961596  .00005007  00000+0  21737-3 0  9997
2 52944  44.9997 344.8312 0002535 352.4113   7.6729 15.23538502  3735
2022-074B               
1 52945U 22074B   22207.78782662  .00007253  00000+0  30844-3 0  9997
2 52945  44.9996 344.7885 0003299 351.7935   8.2878 15.23653686  3734
2022-074C               
1 52946U 22074C   22208.06494427  .00006983  00000+0  20475-3 0  9997
2 52946  45.0052 340.9776 0046892 350.0037   9.9746 15.34881796  3793
SLINGSHOT 1             
1 52947U 22074D   22208.10742197  .00005636  00000+0  23864-3 0  9992
2 52947  44.9888 342.9617 0004101 328.5982  31.4654 15.24175054  3780
2022-074E               
1 52948U 22074E   22207.77257946  .00006734  00000+0  27936-3 0  9992
2 52948  44.9879 344.6635 0006644 327.7045  32.3419 15.24586263  3737
2022-074F               
1 52949U 22074F   22207.78402663  .00011811  00000+0  48928-3 0  9998
2 52949  45.0040 344.7709 0003227 351.0769   8.9821 15.24021575  3736
CTIM                    
1 52950U 22074G   22207.78445877  .00012233  00000+0  50654-3 0  9992
2 52950  45.0141 344.7865 0003259 337.3211  22.7274 15.24008379  3730
2022-074H               
1 52951U 22074H   22207.85148135  .00003187  00000+0  14187-3 0  9997
2 52951  44.9905 344.4192 0003961 354.3131   5.7704 15.23727019  3745
DUMMY CUBESAT           
1 52983U 22065H   22207.89138502  .00000275  00000+0  69450-4 0  9992
2 52983  98.0219 357.9218 0008528 131.1519 229.0406 14.57995837  2864
COSMOS 2557 [GLONASS-K] 
1 52984U 22075A   22207.71475941 -.00000073  00000+0  10000-3 0  9999
2 52984  64.8178   4.1467 0010470 282.0649  76.4440  2.13101882   404
FREGAT R/B              
1 52985U 22075B   22206.65150719 -.00000075  00000+0  00000+0 0  9992
2 52985  64.8359   4.2278 0078860 121.0635 239.7230  2.08817505   389
STARLINK-4260           
1 52986U 22076A   22207.91667824 -.00018209  00000+0 -12518-3 0  9994
2 52986  53.2197 283.7414 0002136  35.6158 107.0517 15.73273895  1303
STARLINK-4259           
1 52987U 22076B   22208.25002315 -.01105874  00000+0 -10156-1 0  9991
2 52987  53.2177 282.0994 0001463  48.9287 173.0796 15.69843310  3606
STARLINK-4291           
1 52988U 22076C   22208.58334491 -.00016579  00000+0 -11380-3 0  9995
2 52988  53.2196 280.4414 0002290  34.5765 287.3367 15.73223649  3658
STARLINK-4293           
1 52989U 22076D   22208.58334491 -.01109461  00000+0 -10536-1 0  9990
2 52989  53.2177 280.4626 0001635  32.9420 274.0425 15.69049554  3659
STARLINK-4286           
1 52990U 22076E   22207.91667824 -.01109441  00000+0 -98492-2 0  9993
2 52990  53.2175 283.7426 0001600  37.5535 100.8392 15.70655996  1307
STARLINK-4285           
1 52991U 22076F   22208.25002315 -.01106278  00000+0 -10155-1 0  9994
2 52991  53.2177 282.1013 0001695  37.1528 187.8794 15.69853054  3606
STARLINK-4269           
1 52992U 22076G   22208.16668981 -.01106930  00000+0 -10074-1 0  9997
2 52992  53.2175 282.5114 0001561  38.9546  75.4533 15.70060805  3588
STARLINK-4264           
1 52993U 22076H   22207.91667824 -.00000953  00000+0 -23599-5 0  9992
2 52993  53.2196 283.7366 0002184  40.5298 105.1947 15.73226941  1305
STARLINK-4256           
1 52994U 22076J   22208.25002315  .00015385  00000+0  11378-3 0  9992
2 52994  53.2197 282.0839 0001805  25.3510 210.0343 15.73211227  3603
STARLINK-4296           
1 52995U 22076K   22208.58334491  .00032376  00000+0  23414-3 0  9995
2 52995  53.2183 280.4374 0001976  32.7550 292.7685 15.73206305  3652
STARLINK-4295           
1 52996U 22076L   22208.58334491  .00019281  00000+0  14129-3 0  9999
2 52996  53.2193 280.4352 0002261  31.9900 292.8124 15.73231389  3657
STARLINK-4301           
1 52997U 22076M   22208.25002315  .00032753  00000+0  23668-3 0  9998
2 52997  53.2200 282.0790 0001924  40.9295 197.9995 15.73218544  3607
STARLINK-4254           
1 52998U 22076N   22208.25002315  .00090096  00000+0  64091-3 0  9998
2 52998  53.2177 282.0717 0002072  35.4627 201.7038 15.73147210  3606
STARLINK-4217           
1 52999U 22076P   22207.91667824 -.00001828  00000+0 -85887-5 0  9998
2 52999  53.2195 283.7254 0001887  28.9296 122.1827 15.73236366  1301
STARLINK-4194           
1 53000U 22076Q   22208.25002315  .00000695  00000+0  93784-5 0  9992
2 53000  53.2177 282.0696 0001976  29.6476 208.0863 15.73204193  3606
STARLINK-4190           
1 53001U 22076R   22207.91667824 -.00000730  00000+0 -77297-6 0  9991
2 53001  53.2193 283.7237 0001851  29.2806 122.4114 15.73238702  1305
STARLINK-4121           
1 53002U 22076S   22207.91667824 -.00001437  00000+0 -58113-5 0  9992
2 53002  53.2195 283.7280 0001855  25.1579 124.2042 15.73208285  1305
STARLINK-4255           
1 53003U 22076T   22208.58334491 -.00040719  00000+0 -28657-3 0  9992
2 53003  53.2188 280.4219 0002351  30.1191 300.6944 15.73239328  3655
STARLINK-4253           
1 53004U 22076U   22207.91667824 -.00001620  00000+0 -71136-5 0  9998
2 53004  53.2192 283.7251 0001912  23.6598 126.8422 15.73212405  1309
STARLINK-4288           
1 53005U 22076V   22208.25002315 -.00000827  00000+0 -14644-5 0  9994
2 53005  53.2178 282.0608 0002163  44.9461 197.5561 15.73205225  3602
STARLINK-4290           
1 53006U 22076W   22208.25002315 -.00078998  00000+0 -56158-3 0  9993
2 53006  53.2197 282.0732 0002078  34.2466 207.0613 15.73286619  3605
STARLINK-4215           
1 53007U 22076X   22207.91667824 -.00079848  00000+0 -56764-3 0  9996
2 53007  53.2196 283.7179 0002229  36.3296 118.8747 15.73289469  1308
STARLINK-4275           
1 53008U 22076Y   22208.58334491  .00039446  00000+0  28430-3 0  9999
2 53008  53.2192 280.4219 0001964  17.1442 314.9234 15.73187263  3658
STARLINK-4277           
1 53009U 22076Z   22208.25002315 -.00077944  00000+0 -55415-3 0  9991
2 53009  53.2194 282.0635 0001986  39.3960 206.7027 15.73278900  3608
STARLINK-4263           
1 53010U 22076AA  22208.25002315  .00027380  00000+0  19858-3 0  9991
2 53010  53.2192 282.0672 0001789  25.5923 218.1345 15.73233051  3604
STARLINK-4265           
1 53011U 22076AB  22208.25002315  .00031837  00000+0  23013-3 0  9992
2 53011  53.2195 282.0623 0001839  26.6485 220.0478 15.73226545  3604
STARLINK-4271           
1 53012U 22076AC  22207.91667824 -.00001650  00000+0 -73215-5 0  9990
2 53012  53.2191 283.7152 0001732  26.3325 129.5273 15.73236623  1307
STARLINK-4177           
1 53013U 22076AD  22208.25002315 -.00072344  00000+0 -51379-3 0  9990
2 53013  53.2190 282.0577 0002046  39.2238 209.2524 15.73273611  3603
STARLINK-4183           
1 53014U 22076AE  22208.25002315  .00026298  00000+0  19098-3 0  9998
2 53014  53.2197 282.0656 0001824  27.3989 218.1158 15.73227266  3600
STARLINK-4262           
1 53015U 22076AF  22208.25002315  .00018765  00000+0  13764-3 0  9993
2 53015  53.2193 282.0569 0001933  25.1789 224.4548 15.73230892  3607
STARLINK-4283           
1 53016U 22076AG  22208.58334491  .00082272  00000+0  58606-3 0  9991
2 53016  53.2179 280.4044 0001777  31.3338 304.8307 15.73152441  3651
STARLINK-4281           
1 53017U 22076AH  22208.58334491 -.00059056  00000+0 -41846-3 0  9996
2 53017  53.2186 280.4070 0002030  24.1853 314.9611 15.73244794  3657
STARLINK-4279           
1 53018U 22076AJ  22208.25002315  .00000571  00000+0  84907-5 0  9991
2 53018  53.2178 282.0496 0002135  40.2914 207.5764 15.73204263  3600
STARLINK-4282           
1 53019U 22076AK  22207.91667824 -.00002124  00000+0 -10702-4 0  9995
2 53019  53.2189 283.7021 0002019  18.9475 143.5136 15.73215567  1306
STARLINK-4287           
1 53020U 22076AL  22208.25002315  .00159928  00000+0  11271-2 0  9996
2 53020  53.2177 282.0484 0002112  39.5909 209.5243 15.73100405  3606
